UNISAT-6                
1 40012U 14033C   26064.36861342  .00005162  00000+0  56277-3 0  9992
2 40012  97.7718 219.0358 0046361  51.9140 308.6244 14.87598887630726
DUCHIFAT-1              
1 40021U 14033M   26064.69603516  .00061998  00000+0  11299-2 0  9998
2 40021  98.0630 110.6544 0006471  95.6180 264.5807 15.49239631639657
QB50P1                  
1 40025U 14033R   26064.55301081  .00013002  00000+0  67179-3 0  9991
2 40025  98.1002  68.5561 0007870 210.4166 149.6610 15.16411477637310
LILACSAT-2              
1 40908U 15049K   26064.76547775  .00021340  00000+0  41152-3 0  9991
2 40908  97.4810  97.8537 0005560 264.7152  95.3463 15.47850951579730
FOX-1A (AO-85)          
1 40967U 15058D   26064.70042630  .00005287  00000+0  47790-3 0  9996
2 40967  64.7739 240.4268 0129073  97.5167 264.0629 14.90314048 98142
CAS-2T & KS-1Q          
1 41847U 16066G   26064.62012462  .00001900  00000+0  27321-3 0  9991
2 41847  98.3895 141.5151 0343762  83.7917 280.2313 14.44455034489842
RADFXSAT (FOX-1B)       
1 43017U 17073E   26064.68761303  .00012500  00000+0  56698-3 0  9999
2 43017  97.4866 294.0689 0155015 326.0783  33.0607 15.10772169449758
DIWATA-2B               
1 43678U 18084H   26064.71963818  .00002567  00000+0  21176-3 0  9999
2 43678  98.1031 256.5936 0011367 139.3754 220.8319 14.99935867400705
ES'HAIL 2               
1 43700U 18090A   26064.51699441  .00000137  00000+0  00000+0 0  9998
2 43700   0.0102 207.4790 0002702 172.6625 355.0003  1.00272028 26633
FOX-1CLIFF (AO-95)      
1 43770U 18099N   26064.70458607  .00015338  00000+0  62947-3 0  9993
2 43770  97.4518 125.4490 0008701   1.5763 358.5500 15.24286297397449
ITASAT                  
1 43786U 18099AE  26064.68665295  .00009966  00000+0  49789-3 0  9999
2 43786  97.4169 118.2962 0012607   0.8654 359.2599 15.17597281397203
JY1SAT (JO-97)          
1 43803U 18099AX  26064.69738960  .00020799  00000+0  71483-3 0  9993
2 43803  97.4260 127.3740 0004616 275.5145  84.5569 15.30119905397783
UWE-4                   
1 43880U 18111E   26064.77601891  .00037644  00000+0  95147-3 0  9994
2 43880  97.5856 348.9231 0008296 354.8932   5.2227 15.39668399394838
TIANYAN 01              
1 44881U 19093C   26064.71374691  .00001651  00000+0  19312-3 0  9994
2 44881  97.7622 139.4464 0015072  69.6274 290.6559 14.86332997336044
RS-44 & BREEZE-KM R/B   
1 44909U 19096E   26064.65107115  .00000001  00000+0 -41165-4 0  9997
2 44909  82.5194  48.4985 0218102  26.7445 334.4708 12.79747335289104
SALSAT                  
1 46495U 20068K   26064.54776748  .00011945  00000+0  43846-3 0  9997
2 46495  97.8852  61.4374 0008579 314.2144  45.8389 15.28084035299522
XW-3 (CAS-9)            
1 50466U 21131B   26064.75509626  .00001020  00000+0  32939-3 0  9998
2 50466  98.4967 157.7333 0005018  59.3870 300.7813 14.41245846220219
