[{"OBJECT_NAME":"UNISAT-6","OBJECT_ID":"2014-033C","EPOCH":"2026-03-05T08:50:48.199488","MEAN_MOTION":14.87598887,"ECCENTRICITY":0.0046361,"INCLINATION":97.7718,"RA_OF_ASC_NODE":219.0358,"ARG_OF_PERICENTER":51.914,"MEAN_ANOMALY":308.6244,"EPHEMERIS_TYPE":0,"CLASSIFICATION_TYPE":"U","NORAD_CAT_ID":40012,"ELEMENT_SET_NO":999,"REV_AT_EPOCH":63072,"BSTAR":0.00056277,"MEAN_MOTION_DOT":5.162e-5,"MEAN_MOTION_DDOT":0},{"OBJECT_NAME":"DUCHIFAT-1","OBJECT_ID":"2014-033M","EPOCH":"2026-03-05T16:42:17.437824","MEAN_MOTION":15.49239631,"ECCENTRICITY":0.0006471,"INCLINATION":98.063,"RA_OF_ASC_NODE":110.6544,"ARG_OF_PERICENTER":95.618,"MEAN_ANOMALY":264.5807,"EPHEMERIS_TYPE":0,"CLASSIFICATION_TYPE":"U","NORAD_CAT_ID":40021,"ELEMENT_SET_NO":999,"REV_AT_EPOCH":63965,"BSTAR":0.0011299,"MEAN_MOTION_DOT":0.00061998,"MEAN_MOTION_DDOT":0},{"OBJECT_NAME":"QB50P1","OBJECT_ID":"2014-033R","EPOCH":"2026-03-05T13:16:20.133984","MEAN_MOTION":15.16411477,"ECCENTRICITY":0.000787,"INCLINATION":98.1002,"RA_OF_ASC_NODE":68.5561,"ARG_OF_PERICENTER":210.4166,"MEAN_ANOMALY":149.661,"EPHEMERIS_TYPE":0,"CLASSIFICATION_TYPE":"U","NORAD_CAT_ID":40025,"ELEMENT_SET_NO":999,"REV_AT_EPOCH":63731,"BSTAR":0.00067179,"MEAN_MOTION_DOT":0.00013002,"MEAN_MOTION_DDOT":0},{"OBJECT_NAME":"LILACSAT-2","OBJECT_ID":"2015-049K","EPOCH":"2026-03-05T18:22:17.277600","MEAN_MOTION":15.47850951,"ECCENTRICITY":0.000556,"INCLINATION":97.481,"RA_OF_ASC_NODE":97.8537,"ARG_OF_PERICENTER":264.7152,"MEAN_ANOMALY":95.3463,"EPHEMERIS_TYPE":0,"CLASSIFICATION_TYPE":"U","NORAD_CAT_ID":40908,"ELEMENT_SET_NO":999,"REV_AT_EPOCH":57973,"BSTAR":0.00041152,"MEAN_MOTION_DOT":0.0002134,"MEAN_MOTION_DDOT":0},{"OBJECT_NAME":"FOX-1A (AO-85)","OBJECT_ID":"2015-058D","EPOCH":"2026-03-05T16:48:36.832320","MEAN_MOTION":14.90314048,"ECCENTRICITY":0.0129073,"INCLINATION":64.7739,"RA_OF_ASC_NODE":240.4268,"ARG_OF_PERICENTER":97.5167,"MEAN_ANOMALY":264.0629,"EPHEMERIS_TYPE":0,"CLASSIFICATION_TYPE":"U","NORAD_CAT_ID":40967,"ELEMENT_SET_NO":999,"REV_AT_EPOCH":9814,"BSTAR":0.0004779,"MEAN_MOTION_DOT":5.287e-5,"MEAN_MOTION_DDOT":0},{"OBJECT_NAME":"CAS-2T & KS-1Q","OBJECT_ID":"2016-066G","EPOCH":"2026-03-05T14:52:58.767168","MEAN_MOTION":14.44455034,"ECCENTRICITY":0.0343762,"INCLINATION":98.3895,"RA_OF_ASC_NODE":141.5151,"ARG_OF_PERICENTER":83.7917,"MEAN_ANOMALY":280.2313,"EPHEMERIS_TYPE":0,"CLASSIFICATION_TYPE":"U","NORAD_CAT_ID":41847,"ELEMENT_SET_NO":999,"REV_AT_EPOCH":48984,"BSTAR":0.00027321,"MEAN_MOTION_DOT":1.9e-5,"MEAN_MOTION_DDOT":0},{"OBJECT_NAME":"RADFXSAT (FOX-1B)","OBJECT_ID":"2017-073E","EPOCH":"2026-03-05T16:30:09.765792","MEAN_MOTION":15.10772169,"ECCENTRICITY":0.0155015,"INCLINATION":97.4866,"RA_OF_ASC_NODE":294.0689,"ARG_OF_PERICENTER":326.0783,"MEAN_ANOMALY":33.0607,"EPHEMERIS_TYPE":0,"CLASSIFICATION_TYPE":"U","NORAD_CAT_ID":43017,"ELEMENT_SET_NO":999,"REV_AT_EPOCH":44975,"BSTAR":0.00056698,"MEAN_MOTION_DOT":0.000125,"MEAN_MOTION_DDOT":0},{"OBJECT_NAME":"DIWATA-2B","OBJECT_ID":"2018-084H","EPOCH":"2026-03-05T17:16:16.738752","MEAN_MOTION":14.99935867,"ECCENTRICITY":0.0011367,"INCLINATION":98.1031,"RA_OF_ASC_NODE":256.5936,"ARG_OF_PERICENTER":139.3754,"MEAN_ANOMALY":220.8319,"EPHEMERIS_TYPE":0,"CLASSIFICATION_TYPE":"U","NORAD_CAT_ID":43678,"ELEMENT_SET_NO":999,"REV_AT_EPOCH":40070,"BSTAR":0.00021176,"MEAN_MOTION_DOT":2.567e-5,"MEAN_MOTION_DDOT":0},{"OBJECT_NAME":"ES'HAIL 2","OBJECT_ID":"2018-090A","EPOCH":"2026-03-05T12:24:28.317024","MEAN_MOTION":1.00272028,"ECCENTRICITY":0.0002702,"INCLINATION":0.0102,"RA_OF_ASC_NODE":207.479,"ARG_OF_PERICENTER":172.6625,"MEAN_ANOMALY":355.0003,"EPHEMERIS_TYPE":0,"CLASSIFICATION_TYPE":"U","NORAD_CAT_ID":43700,"ELEMENT_SET_NO":999,"REV_AT_EPOCH":2663,"BSTAR":0,"MEAN_MOTION_DOT":1.37e-6,"MEAN_MOTION_DDOT":0},{"OBJECT_NAME":"FOX-1CLIFF (AO-95)","OBJECT_ID":"2018-099N","EPOCH":"2026-03-05T16:54:36.236448","MEAN_MOTION":15.24286297,"ECCENTRICITY":0.0008701,"INCLINATION":97.4518,"RA_OF_ASC_NODE":125.449,"ARG_OF_PERICENTER":1.5763,"MEAN_ANOMALY":358.55,"EPHEMERIS_TYPE":0,"CLASSIFICATION_TYPE":"U","NORAD_CAT_ID":43770,"ELEMENT_SET_NO":999,"REV_AT_EPOCH":39744,"BSTAR":0.00062947,"MEAN_MOTION_DOT":0.00015338,"MEAN_MOTION_DDOT":0},{"OBJECT_NAME":"ITASAT","OBJECT_ID":"2018-099AE","EPOCH":"2026-03-05T16:28:46.814880","MEAN_MOTION":15.17597281,"ECCENTRICITY":0.0012607,"INCLINATION":97.4169,"RA_OF_ASC_NODE":118.2962,"ARG_OF_PERICENTER":0.8654,"MEAN_ANOMALY":359.2599,"EPHEMERIS_TYPE":0,"CLASSIFICATION_TYPE":"U","NORAD_CAT_ID":43786,"ELEMENT_SET_NO":999,"REV_AT_EPOCH":39720,"BSTAR":0.00049789,"MEAN_MOTION_DOT":9.966e-5,"MEAN_MOTION_DDOT":0},{"OBJECT_NAME":"JY1SAT (JO-97)","OBJECT_ID":"2018-099AX","EPOCH":"2026-03-05T16:44:14.461440","MEAN_MOTION":15.30119905,"ECCENTRICITY":0.0004616,"INCLINATION":97.426,"RA_OF_ASC_NODE":127.374,"ARG_OF_PERICENTER":275.5145,"MEAN_ANOMALY":84.5569,"EPHEMERIS_TYPE":0,"CLASSIFICATION_TYPE":"U","NORAD_CAT_ID":43803,"ELEMENT_SET_NO":999,"REV_AT_EPOCH":39778,"BSTAR":0.00071483,"MEAN_MOTION_DOT":0.00020799,"MEAN_MOTION_DDOT":0},{"OBJECT_NAME":"UWE-4","OBJECT_ID":"2018-111E","EPOCH":"2026-03-05T18:37:28.033824","MEAN_MOTION":15.39668399,"ECCENTRICITY":0.0008296,"INCLINATION":97.5856,"RA_OF_ASC_NODE":348.9231,"ARG_OF_PERICENTER":354.8932,"MEAN_ANOMALY":5.2227,"EPHEMERIS_TYPE":0,"CLASSIFICATION_TYPE":"U","NORAD_CAT_ID":43880,"ELEMENT_SET_NO":999,"REV_AT_EPOCH":39483,"BSTAR":0.00095147,"MEAN_MOTION_DOT":0.00037644,"MEAN_MOTION_DDOT":0},{"OBJECT_NAME":"TIANYAN 01","OBJECT_ID":"2019-093C","EPOCH":"2026-03-05T17:07:47.733024","MEAN_MOTION":14.86332997,"ECCENTRICITY":0.0015072,"INCLINATION":97.7622,"RA_OF_ASC_NODE":139.4464,"ARG_OF_PERICENTER":69.6274,"MEAN_ANOMALY":290.6559,"EPHEMERIS_TYPE":0,"CLASSIFICATION_TYPE":"U","NORAD_CAT_ID":44881,"ELEMENT_SET_NO":999,"REV_AT_EPOCH":33604,"BSTAR":0.00019312,"MEAN_MOTION_DOT":1.651e-5,"MEAN_MOTION_DDOT":0},{"OBJECT_NAME":"RS-44 & BREEZE-KM R/B","OBJECT_ID":"2019-096E","EPOCH":"2026-03-05T15:37:32.547360","MEAN_MOTION":12.79747335,"ECCENTRICITY":0.0218102,"INCLINATION":82.5194,"RA_OF_ASC_NODE":48.4985,"ARG_OF_PERICENTER":26.7445,"MEAN_ANOMALY":334.4708,"EPHEMERIS_TYPE":0,"CLASSIFICATION_TYPE":"U","NORAD_CAT_ID":44909,"ELEMENT_SET_NO":999,"REV_AT_EPOCH":28910,"BSTAR":-4.1165e-5,"MEAN_MOTION_DOT":1.0e-8,"MEAN_MOTION_DDOT":0},{"OBJECT_NAME":"SALSAT","OBJECT_ID":"2020-068K","EPOCH":"2026-03-05T13:08:47.110272","MEAN_MOTION":15.28084035,"ECCENTRICITY":0.0008579,"INCLINATION":97.8852,"RA_OF_ASC_NODE":61.4374,"ARG_OF_PERICENTER":314.2144,"MEAN_ANOMALY":45.8389,"EPHEMERIS_TYPE":0,"CLASSIFICATION_TYPE":"U","NORAD_CAT_ID":46495,"ELEMENT_SET_NO":999,"REV_AT_EPOCH":29952,"BSTAR":0.00043846,"MEAN_MOTION_DOT":0.00011945,"MEAN_MOTION_DDOT":0},{"OBJECT_NAME":"XW-3 (CAS-9)","OBJECT_ID":"2021-131B","EPOCH":"2026-03-05T18:07:20.316864","MEAN_MOTION":14.41245846,"ECCENTRICITY":0.0005018,"INCLINATION":98.4967,"RA_OF_ASC_NODE":157.7333,"ARG_OF_PERICENTER":59.387,"MEAN_ANOMALY":300.7813,"EPHEMERIS_TYPE":0,"CLASSIFICATION_TYPE":"U","NORAD_CAT_ID":50466,"ELEMENT_SET_NO":999,"REV_AT_EPOCH":22021,"BSTAR":0.00032939,"MEAN_MOTION_DOT":1.02e-5,"MEAN_MOTION_DDOT":0}]
